MR-2                    
1 67556U 26015A   26051.10759638  .00000062  00000+0  75402-4 0  9995
2 67556  88.9961 280.4507 0004983  69.9343 290.2345 13.52686797  3884
MR-1                    
1 67557U 26015B   26051.10811932  .00000069  00000+0  85572-4 0  9998
2 67557  88.9959 280.4508 0005041  68.8191 291.3500 13.52661986  3886
ELECTRON R/B            
1 67558U 26015C   26051.08748863  .06428351 -16024-5  98486-3 0  9999
2 67558  88.9528 279.5043 0200554 161.5115 199.3602 15.96592197  4355
ELECTRON KICK STAGE R/B 
1 67559U 26015D   26051.13156500  .00045045 -17849-6  75267-3 0  9995
2 67559  89.0490 279.9881 0526746 234.5729 120.5227 14.68718358  4217
STARLINK-36426          
1 67560U 26014AA  26051.13719984  .00268693  00000+0  17376-2 0  9992
2 67560  97.2827 295.2552 0001684  59.3824 300.7607 15.75304837  5800
STARLINK-36621          
1 67561U 26016A   26051.12954083  .00182661  00000+0  11968-2 0  9996
2 67561  97.2821 110.6668 0001762 105.5908 254.5552 15.75241098  4035
STARLINK-36398          
1 67562U 26016B   26051.13694807  .00159715  00000+0  10510-2 0  9999
2 67562  97.2822 110.6544 0002827  86.7328 273.4261 15.75203641  4038
STARLINK-36403          
1 67563U 26016C   26051.09314401  .00468052  00000+0  22928-2 0  9997
2 67563  97.2833 110.7174 0001820 136.9741 223.1670 15.81033057  4035
STARLINK-36593          
1 67564U 26016D   26051.16670139 -.00007413  00000+0 -48873-4 0  9990
2 67564  97.2838 110.7901 0001787  78.6881 323.9874 15.75189272  5173
STARLINK-35725          
1 67565U 26016E   26051.11718962  .00218190  00000+0  14249-2 0  9995
2 67565  97.2819 110.6843 0000537  16.5330 343.5952 15.75217633  4031
STARLINK-36394          
1 67566U 26016F   26051.11895393  .00214612  00000+0  14019-2 0  9990
2 67566  97.2830 110.6788 0000901  47.4868 312.6473 15.75222260  4034
STARLINK-36352          
1 67567U 26016G   26051.15156403  .00206865  00000+0  10552-2 0  9996
2 67567  97.2842 110.7883 0003170   0.2657 359.8612 15.80814674  4040
