CCSDS_OMM_VERS = 2.0
CREATION_DATE  = 
ORIGINATOR     = 

OBJECT_NAME    = MR-2
OBJECT_ID      = 2026-015A
CENTER_NAME    = EARTH
REF_FRAME      = TEME
TIME_SYSTEM    = UTC
MEAN_ELEMENT_THEORY = SGP/SGP4

EPOCH          = 2026-02-20T02:34:56.327232
MEAN_MOTION    = 13.52686797
ECCENTRICITY   = .0004983
INCLINATION    = 88.9961
RA_OF_ASC_NODE = 280.4507
ARG_OF_PERICENTER = 69.9343
MEAN_ANOMALY   = 290.2345

EPHEMERIS_TYPE = 0
CLASSIFICATION_TYPE = U
NORAD_CAT_ID   = 67556
ELEMENT_SET_NO = 999
REV_AT_EPOCH   = 388
BSTAR          = .75402E-4
MEAN_MOTION_DOT = .62E-6
MEAN_MOTION_DDOT = 0

CCSDS_OMM_VERS = 2.0
CREATION_DATE  = 
ORIGINATOR     = 

OBJECT_NAME    = MR-1
OBJECT_ID      = 2026-015B
CENTER_NAME    = EARTH
REF_FRAME      = TEME
TIME_SYSTEM    = UTC
MEAN_ELEMENT_THEORY = SGP/SGP4

EPOCH          = 2026-02-20T02:35:41.509248
MEAN_MOTION    = 13.52661986
ECCENTRICITY   = .0005041
INCLINATION    = 88.9959
RA_OF_ASC_NODE = 280.4508
ARG_OF_PERICENTER = 68.8191
MEAN_ANOMALY   = 291.3500

EPHEMERIS_TYPE = 0
CLASSIFICATION_TYPE = U
NORAD_CAT_ID   = 67557
ELEMENT_SET_NO = 999
REV_AT_EPOCH   = 388
BSTAR          = .85572E-4
MEAN_MOTION_DOT = .69E-6
MEAN_MOTION_DDOT = 0

CCSDS_OMM_VERS = 2.0
CREATION_DATE  = 
ORIGINATOR     = 

OBJECT_NAME    = ELECTRON R/B
OBJECT_ID      = 2026-015C
CENTER_NAME    = EARTH
REF_FRAME      = TEME
TIME_SYSTEM    = UTC
MEAN_ELEMENT_THEORY = SGP/SGP4

EPOCH          = 2026-02-20T02:05:59.017632
MEAN_MOTION    = 15.96592197
ECCENTRICITY   = .0200554
INCLINATION    = 88.9528
RA_OF_ASC_NODE = 279.5043
ARG_OF_PERICENTER = 161.5115
MEAN_ANOMALY   = 199.3602

EPHEMERIS_TYPE = 0
CLASSIFICATION_TYPE = U
NORAD_CAT_ID   = 67558
ELEMENT_SET_NO = 999
REV_AT_EPOCH   = 435
BSTAR          = .98486E-3
MEAN_MOTION_DOT = .6428351E-1
MEAN_MOTION_DDOT = -.16024E-5

CCSDS_OMM_VERS = 2.0
CREATION_DATE  = 
ORIGINATOR     = 

OBJECT_NAME    = ELECTRON KICK STAGE R/B
OBJECT_ID      = 2026-015D
CENTER_NAME    = EARTH
REF_FRAME      = TEME
TIME_SYSTEM    = UTC
MEAN_ELEMENT_THEORY = SGP/SGP4

EPOCH          = 2026-02-20T03:09:27.216000
MEAN_MOTION    = 14.68718358
ECCENTRICITY   = .0526746
INCLINATION    = 89.0490
RA_OF_ASC_NODE = 279.9881
ARG_OF_PERICENTER = 234.5729
MEAN_ANOMALY   = 120.5227

EPHEMERIS_TYPE = 0
CLASSIFICATION_TYPE = U
NORAD_CAT_ID   = 67559
ELEMENT_SET_NO = 999
REV_AT_EPOCH   = 421
BSTAR          = .75267E-3
MEAN_MOTION_DOT = .45045E-3
MEAN_MOTION_DDOT = -.17849E-6

CCSDS_OMM_VERS = 2.0
CREATION_DATE  = 
ORIGINATOR     = 

OBJECT_NAME    = STARLINK-36426
OBJECT_ID      = 2026-014AA
CENTER_NAME    = EARTH
REF_FRAME      = TEME
TIME_SYSTEM    = UTC
MEAN_ELEMENT_THEORY = SGP/SGP4

EPOCH          = 2026-02-20T03:17:34.066176
MEAN_MOTION    = 15.75304837
ECCENTRICITY   = .0001684
INCLINATION    = 97.2827
RA_OF_ASC_NODE = 295.2552
ARG_OF_PERICENTER = 59.3824
MEAN_ANOMALY   = 300.7607

EPHEMERIS_TYPE = 0
CLASSIFICATION_TYPE = U
NORAD_CAT_ID   = 67560
ELEMENT_SET_NO = 999
REV_AT_EPOCH   = 580
BSTAR          = .17376E-2
MEAN_MOTION_DOT = .268693E-2
MEAN_MOTION_DDOT = 0

CCSDS_OMM_VERS = 2.0
CREATION_DATE  = 
ORIGINATOR     = 

OBJECT_NAME    = STARLINK-36621
OBJECT_ID      = 2026-016A
CENTER_NAME    = EARTH
REF_FRAME      = TEME
TIME_SYSTEM    = UTC
MEAN_ELEMENT_THEORY = SGP/SGP4

EPOCH          = 2026-02-20T03:06:32.327712
MEAN_MOTION    = 15.75241098
ECCENTRICITY   = .0001762
INCLINATION    = 97.2821
RA_OF_ASC_NODE = 110.6668
ARG_OF_PERICENTER = 105.5908
MEAN_ANOMALY   = 254.5552

EPHEMERIS_TYPE = 0
CLASSIFICATION_TYPE = U
NORAD_CAT_ID   = 67561
ELEMENT_SET_NO = 999
REV_AT_EPOCH   = 403
BSTAR          = .11968E-2
MEAN_MOTION_DOT = .182661E-2
MEAN_MOTION_DDOT = 0

CCSDS_OMM_VERS = 2.0
CREATION_DATE  = 
ORIGINATOR     = 

OBJECT_NAME    = STARLINK-36398
OBJECT_ID      = 2026-016B
CENTER_NAME    = EARTH
REF_FRAME      = TEME
TIME_SYSTEM    = UTC
MEAN_ELEMENT_THEORY = SGP/SGP4

EPOCH          = 2026-02-20T03:17:12.313248
MEAN_MOTION    = 15.75203641
ECCENTRICITY   = .0002827
INCLINATION    = 97.2822
RA_OF_ASC_NODE = 110.6544
ARG_OF_PERICENTER = 86.7328
MEAN_ANOMALY   = 273.4261

EPHEMERIS_TYPE = 0
CLASSIFICATION_TYPE = U
NORAD_CAT_ID   = 67562
ELEMENT_SET_NO = 999
REV_AT_EPOCH   = 403
BSTAR          = .1051E-2
MEAN_MOTION_DOT = .159715E-2
MEAN_MOTION_DDOT = 0

CCSDS_OMM_VERS = 2.0
CREATION_DATE  = 
ORIGINATOR     = 

OBJECT_NAME    = STARLINK-36403
OBJECT_ID      = 2026-016C
CENTER_NAME    = EARTH
REF_FRAME      = TEME
TIME_SYSTEM    = UTC
MEAN_ELEMENT_THEORY = SGP/SGP4

EPOCH          = 2026-02-20T02:14:07.642464
MEAN_MOTION    = 15.81033057
ECCENTRICITY   = .000182
INCLINATION    = 97.2833
RA_OF_ASC_NODE = 110.7174
ARG_OF_PERICENTER = 136.9741
MEAN_ANOMALY   = 223.1670

EPHEMERIS_TYPE = 0
CLASSIFICATION_TYPE = U
NORAD_CAT_ID   = 67563
ELEMENT_SET_NO = 999
REV_AT_EPOCH   = 403
BSTAR          = .22928E-2
MEAN_MOTION_DOT = .468052E-2
MEAN_MOTION_DDOT = 0

CCSDS_OMM_VERS = 2.0
CREATION_DATE  = 
ORIGINATOR     = 

OBJECT_NAME    = STARLINK-36593
OBJECT_ID      = 2026-016D
CENTER_NAME    = EARTH
REF_FRAME      = TEME
TIME_SYSTEM    = UTC
MEAN_ELEMENT_THEORY = SGP/SGP4

EPOCH          = 2026-02-20T04:00:03.000096
MEAN_MOTION    = 15.75189272
ECCENTRICITY   = .0001787
INCLINATION    = 97.2838
RA_OF_ASC_NODE = 110.7901
ARG_OF_PERICENTER = 78.6881
MEAN_ANOMALY   = 323.9874

EPHEMERIS_TYPE = 0
CLASSIFICATION_TYPE = U
NORAD_CAT_ID   = 67564
ELEMENT_SET_NO = 999
REV_AT_EPOCH   = 517
BSTAR          = -.48873E-4
MEAN_MOTION_DOT = -.7413E-4
MEAN_MOTION_DDOT = 0

CCSDS_OMM_VERS = 2.0
CREATION_DATE  = 
ORIGINATOR     = 

OBJECT_NAME    = STARLINK-35725
OBJECT_ID      = 2026-016E
CENTER_NAME    = EARTH
REF_FRAME      = TEME
TIME_SYSTEM    = UTC
MEAN_ELEMENT_THEORY = SGP/SGP4

EPOCH          = 2026-02-20T02:48:45.183168
MEAN_MOTION    = 15.75217633
ECCENTRICITY   = .0000537
INCLINATION    = 97.2819
RA_OF_ASC_NODE = 110.6843
ARG_OF_PERICENTER = 16.5330
MEAN_ANOMALY   = 343.5952

EPHEMERIS_TYPE = 0
CLASSIFICATION_TYPE = U
NORAD_CAT_ID   = 67565
ELEMENT_SET_NO = 999
REV_AT_EPOCH   = 403
BSTAR          = .14249E-2
MEAN_MOTION_DOT = .21819E-2
MEAN_MOTION_DDOT = 0

CCSDS_OMM_VERS = 2.0
CREATION_DATE  = 
ORIGINATOR     = 

OBJECT_NAME    = STARLINK-36394
OBJECT_ID      = 2026-016F
CENTER_NAME    = EARTH
REF_FRAME      = TEME
TIME_SYSTEM    = UTC
MEAN_ELEMENT_THEORY = SGP/SGP4

EPOCH          = 2026-02-20T02:51:17.619552
MEAN_MOTION    = 15.75222260
ECCENTRICITY   = .0000901
INCLINATION    = 97.2830
RA_OF_ASC_NODE = 110.6788
ARG_OF_PERICENTER = 47.4868
MEAN_ANOMALY   = 312.6473

EPHEMERIS_TYPE = 0
CLASSIFICATION_TYPE = U
NORAD_CAT_ID   = 67566
ELEMENT_SET_NO = 999
REV_AT_EPOCH   = 403
BSTAR          = .14019E-2
MEAN_MOTION_DOT = .214612E-2
MEAN_MOTION_DDOT = 0

CCSDS_OMM_VERS = 2.0
CREATION_DATE  = 
ORIGINATOR     = 

OBJECT_NAME    = STARLINK-36352
OBJECT_ID      = 2026-016G
CENTER_NAME    = EARTH
REF_FRAME      = TEME
TIME_SYSTEM    = UTC
MEAN_ELEMENT_THEORY = SGP/SGP4

EPOCH          = 2026-02-20T03:38:15.132192
MEAN_MOTION    = 15.80814674
ECCENTRICITY   = .000317
INCLINATION    = 97.2842
RA_OF_ASC_NODE = 110.7883
ARG_OF_PERICENTER = 0.2657
MEAN_ANOMALY   = 359.8612

EPHEMERIS_TYPE = 0
CLASSIFICATION_TYPE = U
NORAD_CAT_ID   = 67567
ELEMENT_SET_NO = 999
REV_AT_EPOCH   = 404
BSTAR          = .10552E-2
MEAN_MOTION_DOT = .206865E-2
MEAN_MOTION_DDOT = 0

